{
  "type": "FeatureCollection",
  "features": [
    {
      "type": "Feature",
      "properties": {
        "norad_id": 40730,
        "name": "GPS BIIF-10 (PRN 08)",
        "group": "gps-ops",
        "lat": -21.596659345874684,
        "lon": -101.51412758475894,
        "alt_km": 20008.69039874326,
        "timestamp": "2025-12-04T05:42:43.632054+00:00",
        "meta_object_name": "GPS BIIF-10 (PRN 08)",
        "meta_object_id": "2015-033A",
        "meta_epoch": "2025-12-03T06:39:47.619936",
        "meta_mean_motion": 2.00565936,
        "meta_eccentricity": 0.01103737,
        "meta_inclination": 54.139,
        "meta_ra_of_asc_node": 275.1622,
        "meta_arg_of_pericenter": 26.5739,
        "meta_mean_anomaly": 333.9862,
        "meta_ephemeris_type": 0,
        "meta_classification_type": "U",
        "meta_norad_cat_id": 40730,
        "meta_element_set_no": 999,
        "meta_rev_at_epoch": 7606,
        "meta_bstar": 0,
        "meta_mean_motion_dot": -3.5e-07,
        "meta_mean_motion_ddot": 0,
        "tle_line1": "1 40730U 15033A   25337.27763449 -.00000035  00000+0  00000+0 0  9995",
        "tle_line2": "2 40730  54.1390 275.1622 0110373  26.5739 333.9862  2.00565936 76069"
      },
      "geometry": {
        "type": "Point",
        "coordinates": [
          -101.51412758475894,
          -21.596659345874684
        ]
      }
    },
    {
      "type": "Feature",
      "properties": {
        "norad_id": 41019,
        "name": "GPS BIIF-11 (PRN 10)",
        "group": "gps-ops",
        "lat": -51.534508197677965,
        "lon": -16.983324574169654,
        "alt_km": 20042.804825885916,
        "timestamp": "2025-12-04T05:42:43.632065+00:00",
        "meta_object_name": "GPS BIIF-11 (PRN 10)",
        "meta_object_id": "2015-062A",
        "meta_epoch": "2025-12-02T20:07:20.287200",
        "meta_mean_motion": 2.00566746,
        "meta_eccentricity": 0.01105435,
        "meta_inclination": 56.8251,
        "meta_ra_of_asc_node": 38.3854,
        "meta_arg_of_pericenter": 229.6764,
        "meta_mean_anomaly": 129.4032,
        "meta_ephemeris_type": 0,
        "meta_classification_type": "U",
        "meta_norad_cat_id": 41019,
        "meta_element_set_no": 999,
        "meta_rev_at_epoch": 7389,
        "meta_bstar": 0,
        "meta_mean_motion_dot": -6.5e-07,
        "meta_mean_motion_ddot": 0,
        "tle_line1": "1 41019U 15062A   25336.83842925 -.00000065  00000+0  00000+0 0  9999",
        "tle_line2": "2 41019  56.8251  38.3854 0110543 229.6764 129.4032  2.00566746 73899"
      },
      "geometry": {
        "type": "Point",
        "coordinates": [
          -16.983324574169654,
          -51.534508197677965
        ]
      }
    },
    {
      "type": "Feature",
      "properties": {
        "norad_id": 41328,
        "name": "GPS BIIF-12 (PRN 32)",
        "group": "gps-ops",
        "lat": -39.10499145782808,
        "lon": -48.72581474241731,
        "alt_km": 19950.444469334452,
        "timestamp": "2025-12-04T05:42:43.632076+00:00",
        "meta_object_name": "GPS BIIF-12 (PRN 32)",
        "meta_object_id": "2016-007A",
        "meta_epoch": "2025-12-02T10:07:51.558528",
        "meta_mean_motion": 2.00561137,
        "meta_eccentricity": 0.00916551,
        "meta_inclination": 55.4002,
        "meta_ra_of_asc_node": 97.2666,
        "meta_arg_of_pericenter": 243.3201,
        "meta_mean_anomaly": 115.7158,
        "meta_ephemeris_type": 0,
        "meta_classification_type": "U",
        "meta_norad_cat_id": 41328,
        "meta_element_set_no": 999,
        "meta_rev_at_epoch": 7189,
        "meta_bstar": 0,
        "meta_mean_motion_dot": 6e-08,
        "meta_mean_motion_ddot": 0,
        "tle_line1": "1 41328U 16007A   25336.42212452  .00000006  00000+0  00000+0 0  9997",
        "tle_line2": "2 41328  55.4002  97.2666 0091655 243.3201 115.7158  2.00561137 71891"
      },
      "geometry": {
        "type": "Point",
        "coordinates": [
          -48.72581474241731,
          -39.10499145782808
        ]
      }
    },
    {
      "type": "Feature",
      "properties": {
        "norad_id": 43873,
        "name": "GPS BIII-1  (PRN 04)",
        "group": "gps-ops",
        "lat": 42.68297007763783,
        "lon": -119.34682544972256,
        "alt_km": 20143.46208332425,
        "timestamp": "2025-12-04T05:42:43.632087+00:00",
        "meta_object_name": "GPS BIII-1  (PRN 04)",
        "meta_object_id": "2018-109A",
        "meta_epoch": "2025-12-02T13:53:48.865056",
        "meta_mean_motion": 2.00553145,
        "meta_eccentricity": 0.00371805,
        "meta_inclination": 55.5613,
        "meta_ra_of_asc_node": 99.9484,
        "meta_arg_of_pericenter": 194.5324,
        "meta_mean_anomaly": 172.7169,
        "meta_ephemeris_type": 0,
        "meta_classification_type": "U",
        "meta_norad_cat_id": 43873,
        "meta_element_set_no": 999,
        "meta_rev_at_epoch": 5113,
        "meta_bstar": 0,
        "meta_mean_motion_dot": 1e-07,
        "meta_mean_motion_ddot": 0,
        "tle_line1": "1 43873U 18109A   25336.57903779  .00000010  00000+0  00000+0 0  9999",
        "tle_line2": "2 43873  55.5613  99.9484 0037180 194.5324 172.7169  2.00553145 51130"
      },
      "geometry": {
        "type": "Point",
        "coordinates": [
          -119.34682544972256,
          42.68297007763783
        ]
      }
    },
    {
      "type": "Feature",
      "properties": {
        "norad_id": 44506,
        "name": "GPS BIII-2  (PRN 18)",
        "group": "gps-ops",
        "lat": 17.706980249126318,
        "lon": -8.533385134987181,
        "alt_km": 20333.070446368325,
        "timestamp": "2025-12-04T05:42:43.632116+00:00",
        "meta_object_name": "GPS BIII-2  (PRN 18)",
        "meta_object_id": "2019-056A",
        "meta_epoch": "2025-12-02T10:49:28.764768",
        "meta_mean_motion": 2.00565569,
        "meta_eccentricity": 0.00578163,
        "meta_inclination": 55.7251,
        "meta_ra_of_asc_node": 338.9617,
        "meta_arg_of_pericenter": 198.402,
        "meta_mean_anomaly": 332.9603,
        "meta_ephemeris_type": 0,
        "meta_classification_type": "U",
        "meta_norad_cat_id": 44506,
        "meta_element_set_no": 999,
        "meta_rev_at_epoch": 4612,
        "meta_bstar": 0,
        "meta_mean_motion_dot": -6.1e-07,
        "meta_mean_motion_ddot": 0,
        "tle_line1": "1 44506U 19056A   25336.45102737 -.00000061  00000+0  00000+0 0  9994",
        "tle_line2": "2 44506  55.7251 338.9617 0057816 198.4020 332.9603  2.00565569 46121"
      },
      "geometry": {
        "type": "Point",
        "coordinates": [
          -8.533385134987181,
          17.706980249126318
        ]
      }
    },
    {
      "type": "Feature",
      "properties": {
        "norad_id": 45854,
        "name": "GPS BIII-3  (PRN 23)",
        "group": "gps-ops",
        "lat": -27.498449982501594,
        "lon": 16.424233692670587,
        "alt_km": 20273.40668824967,
        "timestamp": "2025-12-04T05:42:43.632129+00:00",
        "meta_object_name": "GPS BIII-3  (PRN 23)",
        "meta_object_id": "2020-041A",
        "meta_epoch": "2025-12-03T06:48:38.769120",
        "meta_mean_motion": 2.00561684,
        "meta_eccentricity": 0.0060262,
        "meta_inclination": 56.5402,
        "meta_ra_of_asc_node": 36.5545,
        "meta_arg_of_pericenter": 203.0015,
        "meta_mean_anomaly": 153.8862,
        "meta_ephemeris_type": 0,
        "meta_classification_type": "U",
        "meta_norad_cat_id": 45854,
        "meta_element_set_no": 999,
        "meta_rev_at_epoch": 4010,
        "meta_bstar": 0,
        "meta_mean_motion_dot": -6.6e-07,
        "meta_mean_motion_ddot": 0,
        "tle_line1": "1 45854U 20041A   25337.28378205 -.00000066  00000+0  00000+0 0  9999",
        "tle_line2": "2 45854  56.5402  36.5545 0060262 203.0015 153.8862  2.00561684 40105"
      },
      "geometry": {
        "type": "Point",
        "coordinates": [
          16.424233692670587,
          -27.498449982501594
        ]
      }
    },
    {
      "type": "Feature",
      "properties": {
        "norad_id": 46826,
        "name": "GPS BIII-4  (PRN 14)",
        "group": "gps-ops",
        "lat": -45.99631893558947,
        "lon": 169.97177119592948,
        "alt_km": 20195.54966123414,
        "timestamp": "2025-12-04T05:42:43.632140+00:00",
        "meta_object_name": "GPS BIII-4  (PRN 14)",
        "meta_object_id": "2020-078A",
        "meta_epoch": "2025-11-12T03:01:29.190720",
        "meta_mean_motion": 2.00567032,
        "meta_eccentricity": 0.0063911,
        "meta_inclination": 54.0223,
        "meta_ra_of_asc_node": 219.5836,
        "meta_arg_of_pericenter": 203.4986,
        "meta_mean_anomaly": 326.7754,
        "meta_ephemeris_type": 0,
        "meta_classification_type": "U",
        "meta_norad_cat_id": 46826,
        "meta_element_set_no": 999,
        "meta_rev_at_epoch": 3715,
        "meta_bstar": 0,
        "meta_mean_motion_dot": -3.4e-07,
        "meta_mean_motion_ddot": 0,
        "tle_line1": "1 46826U 20078A   25316.12603230 -.00000034  00000+0  00000+0 0  9993",
        "tle_line2": "2 46826  54.0223 219.5836 0063911 203.4986 326.7754  2.00567032 37155"
      },
      "geometry": {
        "type": "Point",
        "coordinates": [
          169.97177119592948,
          -45.99631893558947
        ]
      }
    }
  ]
}